[
    {
        "Altitude(m)": 612502.2523765733,
        "Argument of Periapsis(deg)": 0.0,
        "Eccentricity": 0.0,
        "Inclination(deg)": 60.0,
        "Latitude(deg)": -28.136160059177165,
        "Longitude(deg)": -82.85175198161119,
        "Mean Anomaly(deg)": -32.7273,
        "RAAN(deg)": 35.0,
        "Satellite Name": "Test1 174",
        "Satellite Number": 174,
        "Semi-Major Axis(m)": 6980739.136638005,
        "Time(s)": 0
    },
    {
        "Altitude(m)": 612308.6995675339,
        "Argument of Periapsis(deg)": 0.00010418945913296404,
        "Eccentricity": 0.0,
        "Inclination(deg)": 60.0,
        "Latitude(deg)": -27.62321539342559,
        "Longitude(deg)": -82.49827720536815,
        "Mean Anomaly(deg)": -32.10719385453816,
        "RAAN(deg)": 34.99957995086025,
        "Satellite Name": "Test1 174",
        "Satellite Number": 174,
        "Semi-Major Axis(m)": 6980739.136638005,
        "Time(s)": 10
    },
    {
        "Altitude(m)": 612116.1156421473,
        "Argument of Periapsis(deg)": 0.0002083789182659281,
        "Eccentricity": 0.0,
        "Inclination(deg)": 60.0,
        "Latitude(deg)": -27.109101858889744,
        "Longitude(deg)": -82.14845361852412,
        "Mean Anomaly(deg)": -31.48708770907637,
        "RAAN(deg)": 34.99915990172051,
        "Satellite Name": "Test1 174",
        "Satellite Number": 174,
        "Semi-Major Axis(m)": 6980739.136638005,
        "Time(s)": 20
    },
    {
        "Altitude(m)": 611924.5701873226,
        "Argument of Periapsis(deg)": 0.00031256837739889213,
        "Eccentricity": 0.0,
        "Inclination(deg)": 60.0,
        "Latitude(deg)": -26.593853771196038,
        "Longitude(deg)": -81.80217680386548,
        "Mean Anomaly(deg)": -30.86698156361448,
        "RAAN(deg)": 34.99873985258077,
        "Satellite Name": "Test1 174",
        "Satellite Number": 174,
        "Semi-Major Axis(m)": 6980739.136638005,
        "Time(s)": 30
    },
    {
        "Altitude(m)": 611734.1321833723,
        "Argument of Periapsis(deg)": 0.0004167578365318562,
        "Eccentricity": 0.0,
        "Inclination(deg)": 60.0,
        "Latitude(deg)": -26.077504596617715,
        "Longitude(deg)": -81.45934406179875,
        "Mean Anomaly(deg)": -30.24687541815269,
        "RAAN(deg)": 34.998319803441035,
        "Satellite Name": "Test1 174",
        "Satellite Number": 174,
        "Semi-Major Axis(m)": 6980739.136638005,
        "Time(s)": 40
    },
    {
        "Altitude(m)": 611544.8699734887,
        "Argument of Periapsis(deg)": 0.0005209472956648203,
        "Eccentricity": 0.0,
        "Inclination(deg)": 60.0,
        "Latitude(deg)": -25.560086984476918,
        "Longitude(deg)": -81.1198553550911,
        "Mean Anomaly(deg)": -29.62676927269084,
        "RAAN(deg)": 34.99789975430128,
        "Satellite Name": "Test1 174",
        "Satellite Number": 174,
        "Semi-Major Axis(m)": 6980739.136638005,
        "Time(s)": 50
    },
    {
        "Altitude(m)": 611356.8512335336,
        "Argument of Periapsis(deg)": 0.0006251367547977843,
        "Eccentricity": 0.0,
        "Inclination(deg)": 60.0,
        "Latitude(deg)": -25.041632798443707,
        "Longitude(deg)": -80.7836127414903,
        "Mean Anomaly(deg)": -29.00666312722905,
        "RAAN(deg)": 34.99747970516154,
        "Satellite Name": "Test1 174",
        "Satellite Number": 174,
        "Semi-Major Axis(m)": 6980739.136638005,
        "Time(s)": 60
    },
    {
        "Altitude(m)": 611170.1429420953,
        "Argument of Periapsis(deg)": 0.0007293262139307483,
        "Eccentricity": 0.0,
        "Inclination(deg)": 60.0,
        "Latitude(deg)": -24.522173146768402,
        "Longitude(deg)": -80.45051980715729,
        "Mean Anomaly(deg)": -28.38655698176721,
        "RAAN(deg)": 34.9970596560218,
        "Satellite Name": "Test1 174",
        "Satellite Number": 174,
        "Semi-Major Axis(m)": 6980739.136638005,
        "Time(s)": 70
    },
    {
        "Altitude(m)": 610984.8113508776,
        "Argument of Periapsis(deg)": 0.0008335156730637124,
        "Eccentricity": 0.0,
        "Inclination(deg)": 60.0,
        "Latitude(deg)": -24.001738411485903,
        "Longitude(deg)": -80.12048261383735,
        "Mean Anomaly(deg)": -27.76645083630537,
        "RAAN(deg)": 34.996639606882056,
        "Satellite Name": "Test1 174",
        "Satellite Number": 174,
        "Semi-Major Axis(m)": 6980739.136638005,
        "Time(s)": 80
    },
    {
        "Altitude(m)": 610800.9219554124,
        "Argument of Periapsis(deg)": 0.0009377051321966765,
        "Eccentricity": 0.0,
        "Inclination(deg)": 60.0,
        "Latitude(deg)": -23.480358276627747,
        "Longitude(deg)": -79.79340913406214,
        "Mean Anomaly(deg)": -27.146344690843527,
        "RAAN(deg)": 34.996219557742315,
        "Satellite Name": "Test1 174",
        "Satellite Number": 174,
        "Semi-Major Axis(m)": 6980739.136638005,
        "Time(s)": 90
    },
    {
        "Altitude(m)": 610618.5394661383,
        "Argument of Periapsis(deg)": 0.0010418945913296407,
        "Eccentricity": 0.0,
        "Inclination(deg)": 60.0,
        "Latitude(deg)": -22.95806175547851,
        "Longitude(deg)": -79.46920868728958,
        "Mean Anomaly(deg)": -26.526238545381695,
        "RAAN(deg)": 34.99579950860257,
        "Satellite Name": "Test1 174",
        "Satellite Number": 174,
        "Semi-Major Axis(m)": 6980739.136638005,
        "Time(s)": 100
    },
    {
        "Altitude(m)": 610437.7277798068,
        "Argument of Periapsis(deg)": 0.0011460840504626045,
        "Eccentricity": 0.0,
        "Inclination(deg)": 60.0,
        "Latitude(deg)": -22.43487721691186,
        "Longitude(deg)": -79.14779288988339,
        "Mean Anomaly(deg)": -25.906132399919905,
        "RAAN(deg)": 34.99537945946283,
        "Satellite Name": "Test1 174",
        "Satellite Number": 174,
        "Semi-Major Axis(m)": 6980739.136638005,
        "Time(s)": 110
    },
    {
        "Altitude(m)": 610258.5499512864,
        "Argument of Periapsis(deg)": 0.0012502735095955685,
        "Eccentricity": 0.0,
        "Inclination(deg)": 60.0,
        "Latitude(deg)": -21.910832410840218,
        "Longitude(deg)": -78.82907509320127,
        "Mean Anomaly(deg)": -25.286026254458015,
        "RAAN(deg)": 34.99495941032309,
        "Satellite Name": "Test1 174",
        "Satellite Number": 174,
        "Semi-Major Axis(m)": 6980739.136638005,
        "Time(s)": 120
    },
    {
        "Altitude(m)": 610081.0681657403,
        "Argument of Periapsis(deg)": 0.0013544629687285324,
        "Eccentricity": 0.0,
        "Inclination(deg)": 60.0,
        "Latitude(deg)": -21.385954492812456,
        "Longitude(deg)": -78.5129698226808,
        "Mean Anomaly(deg)": -24.665920108996225,
        "RAAN(deg)": 34.99453936118335,
        "Satellite Name": "Test1 174",
        "Satellite Number": 174,
        "Semi-Major Axis(m)": 6980739.136638005,
        "Time(s)": 130
    },
    {
        "Altitude(m)": 609905.343711235,
        "Argument of Periapsis(deg)": 0.0014586524278614966,
        "Eccentricity": 0.0,
        "Inclination(deg)": 60.0,
        "Latitude(deg)": -20.860270047791417,
        "Longitude(deg)": -78.19939373080435,
        "Mean Anomaly(deg)": -24.045813963534385,
        "RAAN(deg)": 34.99411931204361,
        "Satellite Name": "Test1 174",
        "Satellite Number": 174,
        "Semi-Major Axis(m)": 6980739.136638005,
        "Time(s)": 140
    },
    {
        "Altitude(m)": 609731.4369517287,
        "Argument of Periapsis(deg)": 0.0015628418869944607,
        "Eccentricity": 0.0,
        "Inclination(deg)": 60.0,
        "Latitude(deg)": -20.333805113144592,
        "Longitude(deg)": -77.88826503819867,
        "Mean Anomaly(deg)": -23.42570781807259,
        "RAAN(deg)": 34.99369926290385,
        "Satellite Name": "Test1 174",
        "Satellite Number": 174,
        "Semi-Major Axis(m)": 6980739.136638005,
        "Time(s)": 150
    },
    {
        "Altitude(m)": 609559.4073005165,
        "Argument of Periapsis(deg)": 0.0016670313461274247,
        "Eccentricity": 0.0,
        "Inclination(deg)": 60.0,
        "Latitude(deg)": -19.80658520087747,
        "Longitude(deg)": -77.57950297574168,
        "Mean Anomaly(deg)": -22.80560167261075,
        "RAAN(deg)": 34.99327921376411,
        "Satellite Name": "Test1 174",
        "Satellite Number": 174,
        "Semi-Major Axis(m)": 6980739.136638005,
        "Time(s)": 160
    },
    {
        "Altitude(m)": 609389.3131941208,
        "Argument of Periapsis(deg)": 0.0017712208052603888,
        "Eccentricity": 0.0,
        "Inclination(deg)": 60.0,
        "Latitude(deg)": -19.278635319141653,
        "Longitude(deg)": -77.27302874054678,
        "Mean Anomaly(deg)": -22.185495527148912,
        "RAAN(deg)": 34.99285916462437,
        "Satellite Name": "Test1 174",
        "Satellite Number": 174,
        "Semi-Major Axis(m)": 6980739.136638005,
        "Time(s)": 170
    },
    {
        "Altitude(m)": 609221.2120666214,
        "Argument of Periapsis(deg)": 0.001875410264393353,
        "Eccentricity": 0.0,
        "Inclination(deg)": 60.0,
        "Latitude(deg)": -18.749979993045724,
        "Longitude(deg)": -76.96876494006762,
        "Mean Anomaly(deg)": -21.56538938168707,
        "RAAN(deg)": 34.99243911548463,
        "Satellite Name": "Test1 174",
        "Satellite Number": 174,
        "Semi-Major Axis(m)": 6980739.136638005,
        "Time(s)": 180
    },
    {
        "Altitude(m)": 609055.1603244793,
        "Argument of Periapsis(deg)": 0.0019795997235263173,
        "Eccentricity": 0.0,
        "Inclination(deg)": 60.0,
        "Latitude(deg)": -18.22064328479808,
        "Longitude(deg)": -76.66663503718607,
        "Mean Anomaly(deg)": -20.94528323622528,
        "RAAN(deg)": 34.99201906634489,
        "Satellite Name": "Test1 174",
        "Satellite Number": 174,
        "Semi-Major Axis(m)": 6980739.136638005,
        "Time(s)": 190
    }
]